[{"OBJECT_NAME":"UNICORN-2L","OBJECT_ID":"2023-185R","EPOCH":"2026-03-09T22:52:50.754144","MEAN_MOTION":15.19481875,"ECCENTRICITY":0.00120211,"INCLINATION":97.5467,"RA_OF_ASC_NODE":142.778,"ARG_OF_PERICENTER":300.2318,"MEAN_ANOMALY":59.7725,"EPHEMERIS_TYPE":0,"CLASSIFICATION_TYPE":"U","NORAD_CAT_ID":58727,"ELEMENT_SET_NO":999,"REV_AT_EPOCH":11971,"BSTAR":0.00055843151,"MEAN_MOTION_DOT":0.0001181,"MEAN_MOTION_DDOT":0},{"OBJECT_NAME":"CONNECTA IOT-15","OBJECT_ID":"2026-004AR","EPOCH":"2026-03-09T22:41:01.256352","MEAN_MOTION":15.16609971,"ECCENTRICITY":0.00018664,"INCLINATION":97.4573,"RA_OF_ASC_NODE":69.3558,"ARG_OF_PERICENTER":342.2914,"MEAN_ANOMALY":17.8254,"EPHEMERIS_TYPE":0,"CLASSIFICATION_TYPE":"U","NORAD_CAT_ID":67402,"ELEMENT_SET_NO":999,"REV_AT_EPOCH":868,"BSTAR":0.00024313202,"MEAN_MOTION_DOT":4.685e-5,"MEAN_MOTION_DDOT":0}]
